NORAD_CAT_ID,OBJECT_NAME,OBJECT_TYPE,EPOCH,MEAN_MOTION,ECCENTRICITY,INCLINATION,RA_OF_ASC_NODE,ARG_OF_PERICENTER,MEAN_ANOMALY,BSTAR,MEAN_MOTION_DOT,MEAN_MOTION_DDOT,TLE_LINE0,TLE_LINE1,TLE_LINE2,SEMIMAJOR_AXIS,PERIOD,APOGEE,PERIGEE,DECAYED
53793.0,STARLINK-4728,PAYLOAD,2023-07-29 09:31:58,15.08840892,8.59e-05,53.2161,237.8768,70.5848,289.5237,3.7096e-05,3.03e-06,0.0,0 STARLINK-4728,1 53793U 22111W   23210.39720219  .00000303  00000-0  37096-4 0  9990,2 53793  53.2161 237.8768 0000859  70.5848 289.5237 15.08840892 48825,6917.878,95.437,540.337,539.148,0.0
53793.0,STARLINK-4728,PAYLOAD,2023-07-30 01:25:50,15.08814308,0.000113,53.2162,234.9029,85.4294,274.6827,0.00036713,5.556e-05,0.0,0 STARLINK-4728,1 53793U 22111W   23211.05961255  .00005556  00000-0  36713-3 0  9990,2 53793  53.2162 234.9029 0001130  85.4294 274.6827 15.08814308 48921,6917.959,95.439,540.606,539.042,0.0
53793.0,STARLINK-4728,PAYLOAD,2023-07-30 09:22:45,15.08838778,0.0001077,53.2159,233.4159,79.8691,280.2423,7.3642e-05,8.84e-06,0.0,0 STARLINK-4728,1 53793U 22111W   23211.39080554  .00000884  00000-0  73642-4 0  9993,2 53793  53.2159 233.4159 0001077  79.8691 280.2423 15.08838778 48970,6917.884,95.438,540.494,539.004,0.0
53793.0,STARLINK-4728,PAYLOAD,2023-07-31 07:38:08,15.08846071,0.0001069,53.2159,229.253,80.5224,279.5889,0.00010628,1.404e-05,0.0,0 STARLINK-4728,1 53793U 22111W   23212.31815943  .00001404  00000-0  10628-3 0  9997,2 53793  53.2159 229.2530 0001069  80.5224 279.5889 15.08846071 49117,6917.862,95.437,540.466,538.987,0.0
53793.0,STARLINK-4728,PAYLOAD,2023-08-01 04:18:10,15.0883736,0.00011,53.2158,225.3871,81.0549,279.0568,4.8161e-05,4.79e-06,0.0,0 STARLINK-4728,1 53793U 22111W   23213.17928586  .00000479  00000-0  48161-4 0  9995,2 53793  53.2158 225.3871 0001100  81.0549 279.0568 15.08837360 49247,6917.888,95.438,540.514,538.992,0.0
53793.0,STARLINK-4728,PAYLOAD,2023-08-02 07:19:43,15.08841979,0.0001148,53.2158,220.3317,83.9741,276.1382,7.6807e-06,-1.66e-06,0.0,0 STARLINK-4728,1 53793U 22111W   23214.30536355 -.00000166  00000-0  76807-5 0  9993,2 53793  53.2158 220.3317 0001148  83.9741 276.1382 15.08841979 49416,6917.874,95.437,540.534,538.945,0.0
53793.0,STARLINK-4728,PAYLOAD,2023-08-03 16:42:49,15.08835144,0.0001141,53.2158,214.0876,83.4851,276.6271,3.7956e-05,3.16e-06,0.0,0 STARLINK-4728,1 53793U 22111W   23215.69640930  .00000316  00000-0  37956-4 0  9998,2 53793  53.2158 214.0876 0001141  83.4851 276.6271 15.08835144 49628,6917.895,95.438,540.55,538.971,0.0
53793.0,STARLINK-4728,PAYLOAD,2023-08-05 00:30:32,15.08836823,0.0001191,53.2161,208.1408,93.1205,266.9924,3.8494e-05,3.25e-06,0.0,0 STARLINK-4728,1 53793U 22111W   23217.02121245  .00000325  00000-0  38494-4 0  9998,2 53793  53.2161 208.1408 0001191  93.1205 266.9924 15.08836823 49827,6917.89,95.438,540.579,538.931,0.0
53793.0,STARLINK-4728,PAYLOAD,2023-08-06 05:07:28,15.08844038,0.0001157,53.2159,202.788,94.3845,265.728,0.00012991,1.781e-05,0.0,0 STARLINK-4728,1 53793U 22111W   23218.21352603  .00001781  00000-0  12991-3 0  9994,2 53793  53.2159 202.7880 0001157  94.3845 265.7280 15.08844038 50004,6917.868,95.437,540.533,538.933,0.0
53793.0,STARLINK-4728,PAYLOAD,2023-08-06 16:15:11,15.08836556,0.0001199,53.2164,200.7042,87.543,272.5699,4.4501e-05,4.2e-06,0.0,0 STARLINK-4728,1 53793U 22111W   23218.67721347  .00000420  00000-0  44501-4 0  9991,2 53793  53.2164 200.7042 0001199  87.5430 272.5699 15.08836556 50071,6917.891,95.438,540.585,538.926,0.0
53793.0,STARLINK-4728,PAYLOAD,2023-08-07 04:58:16,15.0883095,0.0001196,53.2157,198.3267,91.4378,268.6751,6.1757e-07,-2.78e-06,0.0,0 STARLINK-4728,1 53793U 22111W   23219.20714119 -.00000278  00000-0  61757-6 0  9996,2 53793  53.2157 198.3267 0001196  91.4378 268.6751 15.08830950 50152,6917.908,95.438,540.6,538.946,0.0
53793.0,STARLINK-4728,PAYLOAD,2023-08-07 16:05:58,15.08838581,0.0001228,53.2164,196.2454,92.706,267.4073,3.0312e-05,1.95e-06,0.0,0 STARLINK-4728,1 53793U 22111W   23219.67081683  .00000195  00000-0  30312-4 0  9998,2 53793  53.2164 196.2454 0001228  92.7060 267.4073 15.08838581 50223,6917.885,95.438,540.599,538.9,0.0
53793.0,STARLINK-4728,PAYLOAD,2023-08-08 07:59:48,15.08852827,0.0001159,53.216,193.2711,90.9505,269.162,0.00012413,1.689e-05,0.0,0 STARLINK-4728,1 53793U 22111W   23220.33320480  .00001689  00000-0  12413-3 0  9994,2 53793  53.2160 193.2711 0001159  90.9505 269.1620 15.08852827 50326,6917.841,95.437,540.508,538.904,0.0
53793.0,STARLINK-4728,PAYLOAD,2023-08-08 17:32:08,15.08843158,0.0001319,53.2153,191.4873,85.6706,274.4437,0.00013525,1.865e-05,0.0,0 STARLINK-4728,1 53793U 22111W   23220.73065059  .00001865  00000-0  13525-3 0  9997,2 53793  53.2153 191.4873 0001319  85.6706 274.4437 15.08843158 50387,6917.871,95.437,540.648,538.823,0.0
53793.0,STARLINK-4728,PAYLOAD,2023-08-08 22:18:18,15.08835814,0.0001173,53.2155,190.5953,84.7855,275.3271,0.0001553,2.184e-05,0.0,0 STARLINK-4728,1 53793U 22111W   23220.92937513  .00002184  00000-0  15530-3 0  9994,2 53793  53.2155 190.5953 0001173  84.7855 275.3271 15.08835814 50411,6917.893,95.438,540.57,538.947,0.0
53793.0,STARLINK-4728,PAYLOAD,2023-08-09 07:50:36,15.0884343,0.0001198,53.216,188.8114,89.4977,270.6152,0.00016638,2.361e-05,0.0,0 STARLINK-4728,1 53793U 22111W   23221.32681071  .00002361  00000-0  16638-3 0  9991,2 53793  53.2160 188.8114 0001198  89.4977 270.6152 15.08843430 50475,6917.87,95.437,540.564,538.906,0.0
53793.0,STARLINK-4728,PAYLOAD,2023-08-10 06:06:01,15.08835492,0.0001292,53.2141,184.6497,86.6638,273.4502,-2.618e-05,-7.04e-06,0.0,0 STARLINK-4728,1 53793U 22111W   23222.25418066 -.00000704  00000-0 -26180-4 0  9991,2 53793  53.2141 184.6497 0001292  86.6638 273.4502 15.08835492 50615,6917.894,95.438,540.653,538.865,0.0
53793.0,STARLINK-4728,PAYLOAD,2023-08-11 07:32:10,15.08844103,0.0001336,53.2152,179.891,94.8555,265.259,0.00011105,1.48e-05,0.0,0 STARLINK-4728,1 53793U 22111W   23223.31401266  .00001480  00000-0  11105-3 0  9993,2 53793  53.2152 179.8910 0001336  94.8555 265.2590 15.08844103 50773,6917.868,95.437,540.657,538.809,0.0
53793.0,STARLINK-4728,PAYLOAD,2023-08-11 13:53:44,15.08832627,0.0001589,53.2144,178.7009,88.7069,271.4105,8.4406e-05,1.055e-05,0.0,0 STARLINK-4728,1 53793U 22111W   23223.57898193  .00001055  00000-0  84406-4 0  9993,2 53793  53.2144 178.7009 0001589  88.7069 271.4105 15.08832627 50817,6917.903,95.438,540.867,538.669,0.0
53793.0,STARLINK-4728,PAYLOAD,2023-08-13 05:38:22,15.08839966,0.0001202,53.2153,171.2678,93.0628,267.0501,2.1239e-05,5e-07,0.0,0 STARLINK-4728,1 53793U 22111W   23225.23497933  .00000050  00000-0  21239-4 0  9994,2 53793  53.2153 171.2678 0001202  93.0628 267.0501 15.08839966 51061,6917.88,95.438,540.577,538.914,0.0
53793.0,STARLINK-4728,PAYLOAD,2023-08-14 05:29:09,15.08847878,0.000126,53.2156,166.8071,91.333,268.7806,0.00017003,2.42e-05,0.0,0 STARLINK-4728,1 53793U 22111W   23226.22857721  .00002420  00000-0  17003-3 0  9995,2 53793  53.2156 166.8071 0001260  91.3330 268.7806 15.08847878 51210,6917.856,95.437,540.593,538.85,0.0
53793.0,STARLINK-4728,PAYLOAD,2023-08-15 02:09:10,15.08837095,0.0001387,53.2155,162.9397,98.2681,261.8469,6.2117e-05,7.01e-06,0.0,0 STARLINK-4728,1 53793U 22111W   23227.08970558  .00000701  00000-0  62117-4 0  9991,2 53793  53.2155 162.9397 0001387  98.2681 261.8469 15.08837095 51345,6917.889,95.438,540.714,538.795,0.0
53793.0,STARLINK-4728,PAYLOAD,2023-08-16 01:59:55,15.08905728,0.0001203,53.2181,158.4771,100.912,259.2008,-0.00079465,-0.00012935,0.0,0 STARLINK-4728,1 53793U 22111W   23228.08328302 -.00012935  00000-0 -79465-3 0  9993,2 53793  53.2181 158.4771 0001203 100.9120 259.2008 15.08905728 51491,6917.679,95.433,540.377,538.712,0.0
53793.0,STARLINK-4728,PAYLOAD,2023-08-17 01:50:44,15.08846764,0.0001216,53.2165,154.022,84.7717,275.3414,6.9145e-05,8.13e-06,0.0,0 STARLINK-4728,1 53793U 22111W   23229.07689815  .00000813  00000-0  69145-4 0  9997,2 53793  53.2165 154.0220 0001216  84.7717 275.3414 15.08846764 51640,6917.86,95.437,540.566,538.884,0.0
53793.0,STARLINK-4728,PAYLOAD,2023-08-17 17:44:35,15.08837387,0.0001455,53.2171,151.0453,97.1,263.0158,2.3302e-05,8.3e-07,0.0,0 STARLINK-4728,1 53793U 22111W   23229.73930491  .00000083  00000-0  23302-4 0  9993,2 53793  53.2171 151.0453 0001455  97.1000 263.0158 15.08837387 51741,6917.888,95.438,540.76,538.747,0.0
53793.0,STARLINK-4728,PAYLOAD,2023-08-18 01:41:31,15.0884785,0.000136,53.2172,149.5613,94.339,265.7757,1.5977e-05,-3.4e-07,0.0,0 STARLINK-4728,1 53793U 22111W   23230.07049780 -.00000034  00000-0  15977-4 0  9990,2 53793  53.2172 149.5613 0001360  94.3390 265.7757 15.08847850 51793,6917.856,95.437,540.662,538.781,0.0
53793.0,STARLINK-4728,PAYLOAD,2023-08-18 19:10:46,15.08835803,0.0001483,53.2174,146.2898,90.5636,269.5526,-3.575e-05,-8.57e-06,0.0,0 STARLINK-4728,1 53793U 22111W   23230.79914546 -.00000857  00000-0 -35750-4 0  9995,2 53793  53.2174 146.2898 0001483  90.5636 269.5526 15.08835803 51905,6917.893,95.438,540.784,538.732,0.0
53793.0,STARLINK-4728,PAYLOAD,2023-08-20 02:58:29,15.08835257,0.0001363,53.2161,140.3421,90.4456,269.6692,1.4013e-05,-6.5e-07,0.0,0 STARLINK-4728,1 53793U 22111W   23232.12395043 -.00000065  00000-0  14013-4 0  9998,2 53793  53.2161 140.3421 0001363  90.4456 269.6692 15.08835257 52105,6917.895,95.438,540.703,538.817,0.0
53793.0,STARLINK-4728,PAYLOAD,2023-08-21 02:49:17,15.08820297,0.00013,53.2169,135.8802,92.1182,267.9959,0.00015949,2.25e-05,0.0,0 STARLINK-4728,1 53793U 22111W   23233.11756626  .00002250  00000-0  15949-3 0  9991,2 53793  53.2169 135.8802 0001300  92.1182 267.9959 15.08820297 52252,6917.941,95.439,540.705,538.906,0.0
53793.0,STARLINK-4728,PAYLOAD,2023-08-22 02:40:03,15.08856832,0.0001293,53.2158,131.4203,86.1181,273.9959,0.00035372,5.349e-05,0.0,0 STARLINK-4728,1 53793U 22111W   23234.11114794  .00005349  00000-0  35372-3 0  9990,2 53793  53.2158 131.4203 0001293  86.1181 273.9959 15.08856832 52408,6917.829,95.436,540.588,538.799,0.0
